2023-007C               
1 55250U 23007C   23037.45591435  .00020580  00000+0  80995-3 0  9998
2 55250  97.3746 111.5870 0008558 172.1316  21.5412 15.25627969  3397
2023-007D               
1 55251U 23007D   23037.45502315  .00020090  00000+0  78962-3 0  9995
2 55251  97.3797 111.6035 0009029 175.5718  17.8179 15.25673144  3399
2023-007E               
1 55252U 23007E   23037.46506569 -.00067133  00000+0 -30418-2 0  9996
2 55252  97.3707 111.5419 0009190 202.5829 287.7096 15.21102691  3395
2023-007F               
1 55253U 23007F   23037.72122186 -.00108520  00000+0 -49962-2 0  9995
2 55253  97.3730 111.8371 0003994  46.6796 117.6363 15.20794292  3434
2023-007G               
1 55254U 23007G   23037.44158241  .00014723  00000+0  58011-3 0  9991
2 55254  97.3783 111.5901 0008622 182.0456 306.8816 15.25661166  3398
2023-007H               
1 55255U 23007H   23037.56130174  .00026282  00000+0  10057-2 0  9990
2 55255  97.3720 111.7084 0008984 191.7021 280.6051 15.26509240  3418
2023-007J               
1 55256U 23007J   23037.29617968  .00019094  00000+0  73930-3 0  9995
2 55256  97.3754 111.4526 0008533 193.5707 251.3253 15.26188081  3375
2023-007K               
1 55257U 23007K   23037.43642683  .00009665  00000+0  38040-3 0  9990
2 55257  97.3749 111.5814 0008419 193.6327 288.2540 15.25805368  3396
2023-007L               
1 55258U 23007L   23037.43412589  .00012284  00000+0  47940-3 0  9991
2 55258  97.3757 111.5887 0007999 196.7090 285.3057 15.26028905  3395
2023-007M               
1 55259U 23007M   23037.41876450  .00011043  00000+0  42817-3 0  9991
2 55259  97.3711 111.5692 0008350 205.4216 214.1286 15.26270640  3399
2023-007N               
1 55260U 23007N   23037.42047845  .00015603  00000+0  58797-3 0  9992
2 55260  97.3719 111.5973 0008261 223.6536 265.2353 15.27134800  3399
2023-007P               
1 55261U 23007P   23037.47170318  .00012076  00000+0  45596-3 0  9994
2 55261  97.3718 111.6487 0008985 226.5341 189.2117 15.27124691  3401
USA 342                 
1 55263U 23008A   23037.50069444  .00000060  00000+0  00000+0 0  9995
2 55263   0.0054 359.9998 0003091 164.1565  21.2595  1.00392016   214
NAVSTAR 82 (USA 343)    
1 55268U 23009A   23037.44981036  .00000038  00000+0  00000+0 0  9999
2 55268  55.1005 196.6460 0008175  98.0102 262.0434  2.00570483   658
STARLINK-5277           
1 55269U 23010A   23037.58334491 -.00867467  00000+0 -75560-2 0  9999
2 55269  69.9973  18.1802 0003654 269.1629  25.2902 15.71258354  1300
STARLINK-5301           
1 55270U 23010B   23037.58334491 -.00878067  00000+0 -76663-2 0  9994
2 55270  69.9974  18.1816 0003582 269.4698  23.2740 15.71234183  1309
STARLINK-5306           
1 55271U 23010C   23037.58334491 -.00867778  00000+0 -75624-2 0  9998
2 55271  69.9957  18.1806 0003598 268.8904  24.9929 15.71248358  1306
STARLINK-5310           
1 55272U 23010D   23037.58334491 -.00875573  00000+0 -76410-2 0  9995
2 55272  69.9969  18.1822 0003627 269.6338  22.5027 15.71237373  1309
STARLINK-5291           
1 55273U 23010E   23037.58334491 -.00868815  00000+0 -75641-2 0  9992
2 55273  69.9988  18.1786 0003597 268.0967  27.5063 15.71274370  1300
STARLINK-5236           
1 55274U 23010F   23037.58334491 -.00875609  00000+0 -76253-2 0  9992
2 55274  69.9980  18.1774 0003635 269.2105  26.9640 15.71287031  1302
STARLINK-5260           
1 55275U 23010G   23037.58334491 -.00878533  00000+0 -76499-2 0  9994
2 55275  69.9976  18.1772 0003597 267.8401  28.9036 15.71298588  1306
STARLINK-5261           
1 55276U 23010H   23037.58334491 -.00875218  00000+0 -76097-2 0  9996
2 55276  69.9972  18.1746 0003632 268.9017  29.5540 15.71323816  1309
STARLINK-5299           
1 55277U 23010J   23037.58334491 -.00877974  00000+0 -76411-2 0  9998
2 55277  69.9965  18.1764 0003656 271.4823  25.8300 15.71308377  1300
STARLINK-5289           
1 55278U 23010K   23037.58334491 -.00876639  00000+0 -76140-2 0  9995
2 55278  69.9978  18.1726 0003620 271.2701  28.8931 15.71353073  1303
STARLINK-5323           
1 55279U 23010L   23037.58334491 -.00874966  00000+0 -76104-2 0  9997
2 55279  69.9969  18.1757 0003625 271.0695  26.8164 15.71314175  1309
STARLINK-5331           
1 55280U 23010M   23037.58334491 -.00875208  00000+0 -75982-2 0  9992
2 55280  69.9954  18.1718 0003625 268.7922  31.9456 15.71359331  1302
STARLINK-5298           
1 55281U 23010N   23037.58334491 -.00877964  00000+0 -76329-2 0  9990
2 55281  69.9974  18.1743 0003604 272.4128  26.6143 15.71334141  1306
STARLINK-5330           
1 55282U 23010P   23037.58334491 -.00866522  00000+0 -75080-2 0  9992
2 55282  69.9976  18.1697 0003573 268.9343  33.5123 15.71381633  1304
STARLINK-5317           
1 55283U 23010Q   23037.58334491 -.00877082  00000+0 -76215-2 0  9997
2 55283  69.9974  18.1735 0003625 271.2917  28.3054 15.71342926  1305
STARLINK-5337           
1 55284U 23010R   23037.58334491 -.00875420  00000+0 -75862-2 0  9999
2 55284  69.9979  18.1684 0003615 270.4388  33.1512 15.71403211  1304
STARLINK-5332           
1 55285U 23010S   23037.58334491 -.00858592  00000+0 -68738-2 0  9995
2 55285  69.9959  18.0386 0003505 269.6864 143.4181 15.73213836  1309
STARLINK-5338           
1 55286U 23010T   23037.58334491 -.00882419  00000+0 -76544-2 0  9995
2 55286  69.9940  18.1689 0003559 264.8660  38.1467 15.71400609  1308
STARLINK-5341           
1 55287U 23010U   23037.58334491 -.00875552  00000+0 -75957-2 0  9993
2 55287  69.9972  18.1707 0003613 269.7448  32.1330 15.71377595  1304
STARLINK-5311           
1 55288U 23010V   23037.58334491 -.00876109  00000+0 -75713-2 0  9993
2 55288  69.9963  18.1635 0003666 273.7799  33.7822 15.71469570  1305
STARLINK-5320           
1 55289U 23010W   23037.58334491 -.00865272  00000+0 -74843-2 0  9996
2 55289  69.9971  18.1672 0003621 270.9584  33.7628 15.71418077  1308
STARLINK-5266           
1 55290U 23010X   23037.58334491 -.00875637  00000+0 -75758-2 0  9990
2 55290  69.9947  18.1655 0003622 270.0170  35.8404 15.71441967  1306
STARLINK-5327           
1 55291U 23010Y   23037.58334491 -.00876034  00000+0 -75822-2 0  9995
2 55291  69.9968  18.1662 0003630 268.9816  36.3061 15.71433812  1305
STARLINK-5325           
1 55292U 23010Z   23037.58334491 -.00876056  00000+0 -75678-2 0  9999
2 55292  69.9976  18.1627 0003672 269.6143  38.5153 15.71478845  1304
STARLINK-5287           
1 55293U 23010AA  23037.58334491 -.00876033  00000+0 -75732-2 0  9996
2 55293  69.9960  18.1644 0003673 267.5561  39.4362 15.71461270  1305
STARLINK-5286           
1 55294U 23010AB  23037.58334491 -.00867407  00000+0 -75208-2 0  9990
2 55294  69.9968  18.1707 0003588 269.1919  32.1053 15.71367846  1305
STARLINK-5293           
1 55295U 23010AC  23037.58334491 -.00879398  00000+0 -76734-2 0  9998
2 55295  69.9974  18.1805 0003612 267.0468  26.2505 15.71251583  1302
STARLINK-5285           
1 55296U 23010AD  23037.58334491 -.00876463  00000+0 -75606-2 0  9996
2 55296  69.9958  18.1598 0003610 268.9593  41.4416 15.71514221  1302
STARLINK-5284           
1 55297U 23010AE  23037.58334491 -.00876413  00000+0 -75681-2 0  9995
2 55297  69.9963  18.1623 0003657 267.4410  41.2541 15.71488723  1305
STARLINK-5272           
1 55298U 23010AF  23037.58334491 -.00877551  00000+0 -75668-2 0  9995
2 55298  69.9966  18.1590 0003689 269.4543  41.5086 15.71526302  1309
STARLINK-5270           
1 55299U 23010AG  23037.58334491 -.00875986  00000+0 -75614-2 0  9997
2 55299  69.9961  18.1615 0003674 267.7035  41.5616 15.71496709  1300
STARLINK-5308           
1 55300U 23010AH  23037.58334491 -.00878195  00000+0 -75705-2 0  9996
2 55300  69.9966  18.1583 0003618 268.3392  43.1918 15.71534818  1300
STARLINK-5321           
1 55302U 23010AK  23037.58334491 -.00875122  00000+0 -75392-2 0  9997
2 55302  69.9959  18.1576 0003644 270.2136  41.8885 15.71540716  1305
STARLINK-5322           
1 55303U 23010AL  23037.58334491 -.00876321  00000+0 -75897-2 0  9990
2 55303  69.9969  18.1675 0003636 268.3675  35.7740 15.71418918  1304
STARLINK-5318           
1 55304U 23010AM  23037.58334491 -.00875470  00000+0 -75394-2 0  9997
2 55304  69.9972  18.1569 0003662 266.4018  46.2660 15.71550267  1302
STARLINK-5316           
1 55305U 23010AN  23037.58334491 -.00874920  00000+0 -76216-2 0  9991
2 55305  69.9968  18.1782 0003620 267.7983  27.2079 15.71278075  1301
STARLINK-5295           
1 55306U 23010AP  23037.58334491 -.00866726  00000+0 -74523-2 0  9996
2 55306  69.9981  18.1554 0003627 268.6253  45.1766 15.71563049  1301
STARLINK-5288           
1 55307U 23010AQ  23037.58334491 -.00869831  00000+0 -74840-2 0  9999
2 55307  69.9971  18.1566 0003617 267.6022  45.6321 15.71556243  1306
STARLINK-5292           
1 55308U 23010AR  23037.58334491 -.00875248  00000+0 -75199-2 0  9997
2 55308  69.9959  18.1528 0003665 270.0238  46.0387 15.71604719  1300
STARLINK-5315           
1 55309U 23010AS  23037.58334491 -.00876353  00000+0 -75388-2 0  9996
2 55309  69.9964  18.1552 0003648 268.5772  45.7868 15.71578649  1302
STARLINK-5309           
1 55310U 23010AT  23037.58334491 -.00881430  00000+0 -75808-2 0  9997
2 55310  69.9953  18.1534 0003496 269.3872  46.1040 15.71600257  1301
STARLINK-5312           
1 55311U 23010AU  23037.58334491 -.00875921  00000+0 -75319-2 0  9993
2 55311  69.9964  18.1545 0003658 268.6560  46.2747 15.71587252  1306
STARLINK-5296           
1 55312U 23010AV  23037.58334491 -.00835797  21166-3 -28438-2 0  9991
2 55312  69.9990  17.1948 0003746 260.4905 147.8404 15.89584613  1308
STARLINK-5313           
1 55313U 23010AW  23037.58334491 -.00876003  00000+0 -75231-2 0  9990
2 55313  69.9984  18.1522 0003697 270.1500  46.4711 15.71616818  1304
STARLINK-5305           
1 55314U 23010AX  23037.58334491 -.00875892  00000+0 -75145-2 0  9990
2 55314  69.9967  18.1500 0003662 270.0052  48.3190 15.71640900  1306
